{"type": "FeatureCollection", "features": [{"type": "Feature", "properties": {"norad_id": 28054, "name": "DMSP 5D-3 F16 (USA 172)", "group": "weather", "lat": -64.29025931658978, "lon": 164.4656531778238, "alt_km": 850.360683289382, "timestamp": "2025-12-12T05:47:28.414300+00:00", "meta": {"OBJECT_NAME": "DMSP 5D-3 F16 (USA 172)", "OBJECT_ID": "2003-048A", "EPOCH": "2025-12-11T23:48:16.545024", "MEAN_MOTION": 14.14423794, "ECCENTRICITY": 0.00065282, "INCLINATION": 99.0047, "RA_OF_ASC_NODE": 3.4429, "ARG_OF_PERICENTER": 323.2515, "MEAN_ANOMALY": 93.1492, "EPHEMERIS_TYPE": 0, "CLASSIFICATION_TYPE": "U", "NORAD_CAT_ID": 28054, "ELEMENT_SET_NO": 999, "REV_AT_EPOCH": 14302, "BSTAR": 0.00013425253, "MEAN_MOTION_DOT": 2.12e-06, "MEAN_MOTION_DDOT": 0}, "tle": {"line1": "1 28054U 03048A   25345.99185816  .00000212  00000+0  13425-3 0  9992", "line2": "2 28054  99.0047   3.4429 0006528 323.2515  93.1492 14.14423794143021"}}, "geometry": {"type": "Point", "coordinates": [164.4656531778238, -64.29025931658978]}}, {"type": "Feature", "properties": {"norad_id": 28912, "name": "METEOSAT-9 (MSG-2)", "group": "weather", "lat": 3.366423766920545, "lon": -146.04507577560557, "alt_km": 35771.37919546354, "timestamp": "2025-12-12T05:47:28.414353+00:00", "meta": {"OBJECT_NAME": "METEOSAT-9 (MSG-2)", "OBJECT_ID": "2005-049B", "EPOCH": "2025-12-11T20:34:34.468032", "MEAN_MOTION": 1.00276076, "ECCENTRICITY": 0.00036435, "INCLINATION": 8.9379, "RA_OF_ASC_NODE": 55.9858, "ARG_OF_PERICENTER": 189.8677, "MEAN_ANOMALY": 189.2654, "EPHEMERIS_TYPE": 0, "CLASSIFICATION_TYPE": "U", "NORAD_CAT_ID": 28912, "ELEMENT_SET_NO": 999, "REV_AT_EPOCH": 512, "BSTAR": 0, "MEAN_MOTION_DOT": 1.29e-06, "MEAN_MOTION_DDOT": 0}, "tle": {"line1": "1 28912U 05049B   25345.85734338  .00000129  00000+0  00000+0 0  9990", "line2": "2 28912   8.9379  55.9858 0003643 189.8677 189.2654  1.00276076  5124"}}, "geometry": {"type": "Point", "coordinates": [-146.04507577560557, 3.366423766920545]}}, {"type": "Feature", "properties": {"norad_id": 29522, "name": "DMSP 5D-3 F17 (USA 191)", "group": "weather", "lat": -5.3257734286688425, "lon": 170.81914071789436, "alt_km": 841.0662816971098, "timestamp": "2025-12-12T05:47:28.414370+00:00", "meta": {"OBJECT_NAME": "DMSP 5D-3 F17 (USA 191)", "OBJECT_ID": "2006-050A", "EPOCH": "2025-12-11T23:49:34.190112", "MEAN_MOTION": 14.14919047, "ECCENTRICITY": 0.00093763, "INCLINATION": 98.7394, "RA_OF_ASC_NODE": 351.3974, "ARG_OF_PERICENTER": 227.2083, "MEAN_ANOMALY": 132.8303, "EPHEMERIS_TYPE": 0, "CLASSIFICATION_TYPE": "U", "NORAD_CAT_ID": 29522, "ELEMENT_SET_NO": 999, "REV_AT_EPOCH": 98594, "BSTAR": 0.00016934015, "MEAN_MOTION_DOT": 2.84e-06, "MEAN_MOTION_DDOT": 0}, "tle": {"line1": "1 29522U 06050A   25345.99275683  .00000284  00000+0  16934-3 0  9998", "line2": "2 29522  98.7394 351.3974 0009376 227.2083 132.8303 14.14919047985948"}}, "geometry": {"type": "Point", "coordinates": [170.81914071789436, -5.3257734286688425]}}, {"type": "Feature", "properties": {"norad_id": 32958, "name": "FENGYUN 3A", "group": "weather", "lat": -69.25999602844813, "lon": 82.0168774392788, "alt_km": 831.4595797973789, "timestamp": "2025-12-12T05:47:28.414384+00:00", "meta": {"OBJECT_NAME": "FENGYUN 3A", "OBJECT_ID": "2008-026A", "EPOCH": "2025-12-11T20:09:10.932768", "MEAN_MOTION": 14.19514245, "ECCENTRICITY": 0.00079441, "INCLINATION": 98.6697, "RA_OF_ASC_NODE": 285.3855, "ARG_OF_PERICENTER": 313.1724, "MEAN_ANOMALY": 46.8788, "EPHEMERIS_TYPE": 0, "CLASSIFICATION_TYPE": "U", "NORAD_CAT_ID": 32958, "ELEMENT_SET_NO": 999, "REV_AT_EPOCH": 90882, "BSTAR": 0.00012083885, "MEAN_MOTION_DOT": 2.11e-06, "MEAN_MOTION_DDOT": 0}, "tle": {"line1": "1 32958U 08026A   25345.83970987  .00000211  00000+0  12084-3 0  9994", "line2": "2 32958  98.6697 285.3855 0007944 313.1724  46.8788 14.19514245908829"}}, "geometry": {"type": "Point", "coordinates": [82.0168774392788, -69.25999602844813]}}, {"type": "Feature", "properties": {"norad_id": 35491, "name": "GOES 14", "group": "weather", "lat": -0.5225736461891464, "lon": 58.6218411588605, "alt_km": 35838.96763979177, "timestamp": "2025-12-12T05:47:28.414399+00:00", "meta": {"OBJECT_NAME": "GOES 14", "OBJECT_ID": "2009-033A", "EPOCH": "2025-12-11T23:15:51.058080", "MEAN_MOTION": 1.000959, "ECCENTRICITY": 8.198e-05, "INCLINATION": 1.2007, "RA_OF_ASC_NODE": 85.3973, "ARG_OF_PERICENTER": 160.8826, "MEAN_ANOMALY": 74.3385, "EPHEMERIS_TYPE": 0, "CLASSIFICATION_TYPE": "U", "NORAD_CAT_ID": 35491, "ELEMENT_SET_NO": 999, "REV_AT_EPOCH": 471, "BSTAR": 0, "MEAN_MOTION_DOT": -2.7e-07, "MEAN_MOTION_DDOT": 0}, "tle": {"line1": "1 35491U 09033A   25345.96934095 -.00000027  00000+0  00000+0 0  9999", "line2": "2 35491   1.2007  85.3973 0000819 160.8826  74.3385  1.00095900  4714"}}, "geometry": {"type": "Point", "coordinates": [58.6218411588605, -0.5225736461891464]}}, {"type": "Feature", "properties": {"norad_id": 35951, "name": "DMSP 5D-3 F18 (USA 210)", "group": "weather", "lat": 52.01094982460942, "lon": -48.907559357720544, "alt_km": 829.6628498423624, "timestamp": "2025-12-12T05:47:28.414412+00:00", "meta": {"OBJECT_NAME": "DMSP 5D-3 F18 (USA 210)", "OBJECT_ID": "2009-057A", "EPOCH": "2025-12-11T22:45:11.225376", "MEAN_MOTION": 14.14768473, "ECCENTRICITY": 0.00120603, "INCLINATION": 98.8834, "RA_OF_ASC_NODE": 322.3528, "ARG_OF_PERICENTER": 64.8112, "MEAN_ANOMALY": 295.4311, "EPHEMERIS_TYPE": 0, "CLASSIFICATION_TYPE": "U", "NORAD_CAT_ID": 35951, "ELEMENT_SET_NO": 999, "REV_AT_EPOCH": 83311, "BSTAR": 0.00023094067, "MEAN_MOTION_DOT": 4.01e-06, "MEAN_MOTION_DDOT": 0}, "tle": {"line1": "1 35951U 09057A   25345.94804659  .00000401  00000+0  23094-3 0  9993", "line2": "2 35951  98.8834 322.3528 0012060  64.8112 295.4311 14.14768473833117"}}, "geometry": {"type": "Point", "coordinates": [-48.907559357720544, 52.01094982460942]}}, {"type": "Feature", "properties": {"norad_id": 36411, "name": "EWS-G2 (GOES 15)", "group": "weather", "lat": 0.46699378911994693, "lon": -130.56559940254496, "alt_km": 35765.66748833726, "timestamp": "2025-12-12T05:47:28.414425+00:00", "meta": {"OBJECT_NAME": "EWS-G2 (GOES 15)", "OBJECT_ID": "2010-008A", "EPOCH": "2025-12-11T23:43:10.212960", "MEAN_MOTION": 1.00269643, "ECCENTRICITY": 0.00057749, "INCLINATION": 0.8124, "RA_OF_ASC_NODE": 86.0599, "ARG_OF_PERICENTER": 174.4597, "MEAN_ANOMALY": 237.6272, "EPHEMERIS_TYPE": 0, "CLASSIFICATION_TYPE": "U", "NORAD_CAT_ID": 36411, "ELEMENT_SET_NO": 999, "REV_AT_EPOCH": 5776, "BSTAR": 0, "MEAN_MOTION_DOT": 4.7e-07, "MEAN_MOTION_DDOT": 0}, "tle": {"line1": "1 36411U 10008A   25345.98831265  .00000047  00000+0  00000+0 0  9994", "line2": "2 36411   0.8124  86.0599 0005774 174.4597 237.6272  1.00269643 57764"}}, "geometry": {"type": "Point", "coordinates": [-130.56559940254496, 0.46699378911994693]}}, {"type": "Feature", "properties": {"norad_id": 36744, "name": "COMS 1", "group": "weather", "lat": -2.6981863061953226, "lon": -63.85165381977861, "alt_km": 35782.38375522975, "timestamp": "2025-12-12T05:47:28.414438+00:00", "meta": {"OBJECT_NAME": "COMS 1", "OBJECT_ID": "2010-032A", "EPOCH": "2025-12-11T15:50:01.719168", "MEAN_MOTION": 1.00270393, "ECCENTRICITY": 0.00010766, "INCLINATION": 4.3389, "RA_OF_ASC_NODE": 78.0101, "ARG_OF_PERICENTER": 214.1904, "MEAN_ANOMALY": 154.095, "EPHEMERIS_TYPE": 0, "CLASSIFICATION_TYPE": "U", "NORAD_CAT_ID": 36744, "ELEMENT_SET_NO": 999, "REV_AT_EPOCH": 4921, "BSTAR": 0, "MEAN_MOTION_DOT": -3.37e-06, "MEAN_MOTION_DDOT": 0}, "tle": {"line1": "1 36744U 10032A   25345.65974212 -.00000337  00000+0  00000+0 0  9997", "line2": "2 36744   4.3389  78.0101 0001076 214.1904 154.0950  1.00270393 49210"}}, "geometry": {"type": "Point", "coordinates": [-63.85165381977861, -2.6981863061953226]}}, {"type": "Feature", "properties": {"norad_id": 37214, "name": "FENGYUN 3B", "group": "weather", "lat": 17.271125099606923, "lon": 23.392982639044355, "alt_km": 828.2964176438472, "timestamp": "2025-12-12T05:47:28.414450+00:00", "meta": {"OBJECT_NAME": "FENGYUN 3B", "OBJECT_ID": "2010-059A", "EPOCH": "2025-12-12T01:07:35.260896", "MEAN_MOTION": 14.14790524, "ECCENTRICITY": 0.00220882, "INCLINATION": 98.9907, "RA_OF_ASC_NODE": 26.0187, "ARG_OF_PERICENTER": 359.6997, "MEAN_ANOMALY": 108.4226, "EPHEMERIS_TYPE": 0, "CLASSIFICATION_TYPE": "U", "NORAD_CAT_ID": 37214, "ELEMENT_SET_NO": 999, "REV_AT_EPOCH": 78096, "BSTAR": 0.00025735795, "MEAN_MOTION_DOT": 4.52e-06, "MEAN_MOTION_DDOT": 0}, "tle": {"line1": "1 37214U 10059A   25346.04693589  .00000452  00000+0  25736-3 0  9992", "line2": "2 37214  98.9907  26.0187 0022088 359.6997 108.4226 14.14790524780963"}}, "geometry": {"type": "Point", "coordinates": [23.392982639044355, 17.271125099606923]}}, {"type": "Feature", "properties": {"norad_id": 37849, "name": "SUOMI NPP", "group": "weather", "lat": -29.60192497827168, "lon": 98.55170971635738, "alt_km": 832.8306820824027, "timestamp": "2025-12-12T05:47:28.414462+00:00", "meta": {"OBJECT_NAME": "SUOMI NPP", "OBJECT_ID": "2011-061A", "EPOCH": "2025-12-11T23:43:50.651616", "MEAN_MOTION": 14.19513866, "ECCENTRICITY": 0.00022223, "INCLINATION": 98.7772, "RA_OF_ASC_NODE": 283.3371, "ARG_OF_PERICENTER": 121.6606, "MEAN_ANOMALY": 238.4787, "EPHEMERIS_TYPE": 0, "CLASSIFICATION_TYPE": "U", "NORAD_CAT_ID": 37849, "ELEMENT_SET_NO": 999, "REV_AT_EPOCH": 73188, "BSTAR": 0.00010523145, "MEAN_MOTION_DOT": 1.78e-06, "MEAN_MOTION_DDOT": 0}, "tle": {"line1": "1 37849U 11061A   25345.98878069  .00000178  00000+0  10523-3 0  9993", "line2": "2 37849  98.7772 283.3371 0002222 121.6606 238.4787 14.19513866731880"}}, "geometry": {"type": "Point", "coordinates": [98.55170971635738, -29.60192497827168]}}]}